{
"type": "FeatureCollection",
"name": "karun_all",
"crs": { "type": "name", "properties": { "name": "urn:ogc:def:crs:OGC:1.3:CRS84" } },
"features": [
{ "type": "Feature", "properties": { "name_chf": "費德里卡倫", "name_ma": "feideri karun", "name_chj": "费德里卡伦", "name_alias": null, "time": "강희말기", "zone": "변외카룬/jasei tulergi karun", "memo": null }, "geometry": { "type": "Point", "coordinates": [ 125.685917889000052, 42.129111050000056 ] } },
{ "type": "Feature", "properties": { "name_chf": "三桐河口卡倫", "name_ma": "santun birai angga karun", "name_chj": "三桐河口卡伦", "name_alias": null, "time": "강희말기", "zone": "변외카룬/jasei tulergi karun", "memo": null }, "geometry": { "type": "Point", "coordinates": [ 126.243531406000102, 42.749088702000059 ] } },
{ "type": "Feature", "properties": { "name_chf": "永甸卡倫", "name_ma": "yung diyan karun", "name_chj": "永甸卡伦", "name_alias": null, "time": "강희말기", "zone": "변외카룬/jasei tulergi karun", "memo": null }, "geometry": { "type": "Point", "coordinates": [ 124.838454839000065, 40.558077406000045 ] } },
{ "type": "Feature", "properties": { "name_chf": "伊米孫卡倫", "name_ma": "imsun karun", "name_chj": "伊米孙卡伦", "name_alias": null, "time": "강희말기", "zone": "변외카룬/jasei tulergi karun", "memo": null }, "geometry": { "type": "Point", "coordinates": [ 125.429166667000118, 41.770833333000049 ] } },
{ "type": "Feature", "properties": { "name_chf": "福爾兼哈達卡倫", "name_ma": "fulgiyan hada karun", "name_chj": "福尔兼哈达卡伦", "name_alias": "紅石䃳子卡倫/hvng xi la dzi karun", "time": "강희말기", "zone": "변외카룬/jasei tulergi karun", "memo": null }, "geometry": { "type": "Point", "coordinates": [ 126.51901620000001, 41.938054020000038 ] } },
{ "type": "Feature", "properties": { "name_chf": "嘉勒圖庫卡倫", "name_ma": "giyaltukv karun", "name_chj": "嘉勒图库卡伦", "name_alias": null, "time": "강희말기", "zone": "변외카룬/jasei tulergi karun", "memo": null }, "geometry": { "type": "Point", "coordinates": [ 125.5875, 41.720833333000037 ] } },
{ "type": "Feature", "properties": { "name_chf": "古河卡倫", "name_ma": "gu ho birai angga", "name_chj": "古河卡伦", "name_alias": null, "time": "강희말기", "zone": "변외카룬/jasei tulergi karun", "memo": null }, "geometry": { "type": "Point", "coordinates": [ 125.258171509000036, 40.932295647000039 ] } },
{ "type": "Feature", "properties": { "name_chf": "東阿卡倫", "name_ma": "donggo karun", "name_chj": "东阿卡伦", "name_alias": null, "time": "강희말기", "zone": "변외카룬/jasei tulergi karun", "memo": null }, "geometry": { "type": "Point", "coordinates": [ 124.8625, 41.229166667000051 ] } },
{ "type": "Feature", "properties": { "name_chf": "三叉子卡倫", "name_ma": "san tsa dzi karun", "name_chj": "三叉子卡伦", "name_alias": null, "time": "강희말기", "zone": "변외카룬/jasei tulergi karun", "memo": null }, "geometry": { "type": "Point", "coordinates": [ 124.939929110000108, 40.585072463000074 ] } },
{ "type": "Feature", "properties": { "name_chf": "湯寶城卡倫", "name_ma": null, "name_chj": "汤宝城卡伦", "name_alias": null, "time": "강희말기", "zone": "변외카룬/jasei tulergi karun", "memo": null }, "geometry": { "type": "Point", "coordinates": [ 124.333049381, 40.457548086000024 ] } },
{ "type": "Feature", "properties": { "name_chf": "石頭城卡倫", "name_ma": null, "name_chj": "石头城卡伦", "name_alias": null, "time": "강희말기", "zone": "변외카룬/jasei tulergi karun", "memo": null }, "geometry": { "type": "Point", "coordinates": [ 124.312034571000027, 40.639239454000062 ] } },
{ "type": "Feature", "properties": { "name_chf": "寬甸卡倫", "name_ma": "kuwan diyan karun", "name_chj": "宽甸卡伦", "name_alias": null, "time": "강희말기", "zone": "변외카룬/jasei tulergi karun", "memo": null }, "geometry": { "type": "Point", "coordinates": [ 124.782243723000093, 40.731081648000043 ] } },
{ "type": "Feature", "properties": { "name_chf": "鴨爾河卡倫", "name_ma": "yalhv karun", "name_chj": "鸭尔河卡伦", "name_alias": null, "time": "강희말기", "zone": "변외카룬/jasei tulergi karun", "memo": null }, "geometry": { "type": "Point", "coordinates": [ 125.322405689000107, 41.207216877000064 ] } },
{ "type": "Feature", "properties": { "name_chf": "朱爾和阿師哈卡倫", "name_ma": "jurho asiha karun", "name_chj": "朱尔和阿師哈卡伦", "name_alias": null, "time": "강희말기", "zone": "변외카룬/jasei tulergi karun", "memo": null }, "geometry": { "type": "Point", "coordinates": [ 125.361324204000098, 41.363676511000065 ] } },
{ "type": "Feature", "properties": { "name_chf": "古山子樓房卡倫(1)", "name_ma": null, "name_chj": "古山子楼房卡伦(1)", "name_alias": null, "time": "강희말기", "zone": "변외카룬/jasei tulergi karun", "memo": null }, "geometry": { "type": "Point", "coordinates": [ 124.779955032000089, 40.684438998000076 ] } },
{ "type": "Feature", "properties": { "name_chf": "噶三和羅佛鈕卡倫", "name_ma": "gasangga holo karun", "name_chj": "噶三和罗佛钮卡伦", "name_alias": null, "time": "강희말기", "zone": "변외카룬/jasei tulergi karun", "memo": null }, "geometry": { "type": "Point", "coordinates": [ 125.062500000000114, 42.1625 ] } },
{ "type": "Feature", "properties": { "name_chf": "土門卡倫(1)", "name_ma": null, "name_chj": "土门卡伦(1)", "name_alias": null, "time": "강희말기", "zone": "변외카룬/jasei tulergi karun", "memo": null }, "geometry": { "type": "Point", "coordinates": [ 124.4625, 40.5125 ] } },
{ "type": "Feature", "properties": { "name_chf": "費德里薩哈連浪土之間卡倫", "name_ma": "feideri sahaliyan langtu i siden karun", "name_chj": "费德里萨哈连浪土之间卡伦", "name_alias": null, "time": "강희말기", "zone": "변외카룬/jasei tulergi karun", "memo": null }, "geometry": { "type": "Point", "coordinates": [ 125.52095514933967, 41.999454436170645 ] } },
{ "type": "Feature", "properties": { "name_chf": "輝發卡倫", "name_ma": "hoifa karun", "name_chj": "辉发卡伦", "name_alias": null, "time": "강희말기", "zone": "변외카룬/jasei tulergi karun", "memo": null }, "geometry": { "type": "Point", "coordinates": [ 126.188417078000029, 42.735201208000042 ] } },
{ "type": "Feature", "properties": { "name_chf": "薩哈連浪土卡倫", "name_ma": "sahaliyan langtu karun", "name_chj": "萨哈连浪土卡伦", "name_alias": null, "time": "강희말기", "zone": "변외카룬/jasei tulergi karun", "memo": null }, "geometry": { "type": "Point", "coordinates": [ 125.440637750000064, 41.952132940000048 ] } },
{ "type": "Feature", "properties": { "name_chf": "坦品河卡倫", "name_ma": "tampin bira karun", "name_chj": "坦品河卡伦", "name_alias": null, "time": "강희말기", "zone": "변외카룬/jasei tulergi karun", "memo": null }, "geometry": { "type": "Point", "coordinates": [ 126.354224880000046, 42.420787521000079 ] } },
{ "type": "Feature", "properties": { "name_chf": "長嶺子卡倫", "name_ma": null, "name_chj": "长岭子卡伦", "name_alias": null, "time": "강희말기", "zone": "변외카룬/jasei tulergi karun", "memo": null }, "geometry": { "type": "Point", "coordinates": [ 124.688236122000049, 40.804633585000026 ] } },
{ "type": "Feature", "properties": { "name_chf": "三桐渡口卡倫", "name_ma": "santun dogon karun", "name_chj": "三桐渡口卡伦", "name_alias": null, "time": "강희말기", "zone": "변외카룬/jasei tulergi karun", "memo": null }, "geometry": { "type": "Point", "coordinates": [ 126.104166667000072, 42.304166667000061 ] } },
{ "type": "Feature", "properties": { "name_chf": "土門卡倫(2)", "name_ma": null, "name_chj": "土门卡伦(2)", "name_alias": null, "time": "강희말기", "zone": "변외카룬/jasei tulergi karun", "memo": null }, "geometry": { "type": "Point", "coordinates": [ 125.036137468000092, 40.998628850000046 ] } },
{ "type": "Feature", "properties": { "name_chf": "古山子樓房卡倫(2)", "name_ma": null, "name_chj": "古山子楼房卡伦(2)", "name_alias": null, "time": "강희말기", "zone": "변외카룬/jasei tulergi karun", "memo": null }, "geometry": { "type": "Point", "coordinates": [ 124.40423806900003, 40.234998756000039 ] } },
{ "type": "Feature", "properties": { "name_chf": "哈爾撒卡倫", "name_ma": "harsa karun", "name_chj": "哈尔撒卡伦", "name_alias": null, "time": "옹정초기", "zone": "변내카룬/jasei dorgi karun", "memo": null }, "geometry": { "type": "Point", "coordinates": [ 124.822274178000058, 41.626346871000074 ] } },
{ "type": "Feature", "properties": { "name_chf": "馬前寨卡倫", "name_ma": "ma ciyan jai karun", "name_chj": "马前寨卡伦", "name_alias": null, "time": "옹정초기", "zone": "변내카룬/jasei dorgi karun", "memo": null }, "geometry": { "type": "Point", "coordinates": [ 124.893467861511212, 42.089612679706867 ] } },
{ "type": "Feature", "properties": { "name_chf": "耿家莊卡倫", "name_ma": "geng giya juwang karun", "name_chj": "耿家庄卡伦", "name_alias": null, "time": "옹정초기", "zone": "변내카룬/jasei dorgi karun", "memo": null }, "geometry": { "type": "Point", "coordinates": [ 124.477838854000098, 42.522648035000032 ] } },
{ "type": "Feature", "properties": { "name_chf": "葦子谷卡倫", "name_ma": "wei dzi ioi karun", "name_chj": "苇子谷卡伦", "name_alias": null, "time": "옹정초기", "zone": "변내카룬/jasei dorgi karun", "memo": null }, "geometry": { "type": "Point", "coordinates": [ 124.5125, 41.445833333000046 ] } },
{ "type": "Feature", "properties": { "name_chf": "鹼廠卡倫", "name_ma": "giyamcan karun", "name_chj": "碱厂营卡伦", "name_alias": null, "time": "옹정초기", "zone": "변내카룬/jasei dorgi karun", "memo": null }, "geometry": { "type": "Point", "coordinates": [ 124.4805923360001, 41.254582384000066 ] } },
{ "type": "Feature", "properties": { "name_chf": "靉哈卡倫", "name_ma": "aiha karun", "name_chj": "叆哈卡伦", "name_alias": null, "time": "옹정초기", "zone": "변내카룬/jasei dorgi karun", "memo": null }, "geometry": { "type": "Point", "coordinates": [ 124.423850769000055, 40.912671080000052 ] } },
{ "type": "Feature", "properties": { "name_chf": "小石棚卡倫", "name_ma": "siyoo xi peng", "name_chj": "小石棚卡伦", "name_alias": null, "time": "가경9년", "zone": "변내카룬/jasei dorgi karun", "memo": null }, "geometry": { "type": "Point", "coordinates": [ 124.464715272000021, 41.143088001000073 ] } },
{ "type": "Feature", "properties": { "name_chf": "頂山拐卡倫", "name_ma": "ding xan gvwai karun", "name_chj": "顶山拐卡伦", "name_alias": null, "time": "가경9년", "zone": "변내카룬/jasei dorgi karun", "memo": null }, "geometry": { "type": "Point", "coordinates": [ 124.300691581000024, 41.383029144000041 ] } },
{ "type": "Feature", "properties": { "name_chf": "佛笑島卡倫", "name_ma": "fe siyoo doo dzi karun", "name_chj": "佛笑岛卡伦", "name_alias": null, "time": "가경9년", "zone": "변내카룬/jasei dorgi karun", "memo": null }, "geometry": { "type": "Point", "coordinates": [ 123.934536340000022, 39.871874420000019 ] } },
{ "type": "Feature", "properties": { "name_chf": "耿家莊卡倫", "name_ma": "geng giya juwang karun", "name_chj": "耿家庄卡伦", "name_alias": null, "time": "건륭중기", "zone": "변내카룬/jasei dorgi karun", "memo": null }, "geometry": { "type": "Point", "coordinates": [ 124.477838854000098, 42.522648035000032 ] } },
{ "type": "Feature", "properties": { "name_chf": "佛笑島卡倫", "name_ma": "fe siyoo doo dzi karun", "name_chj": "佛笑岛卡伦", "name_alias": null, "time": "건륭중기", "zone": "변내카룬/jasei dorgi karun", "memo": null }, "geometry": { "type": "Point", "coordinates": [ 123.934536340000022, 39.871874420000019 ] } },
{ "type": "Feature", "properties": { "name_chf": "湯寶城卡倫", "name_ma": null, "name_chj": "汤宝城卡伦", "name_alias": null, "time": "건륭중기", "zone": "변내카룬/jasei dorgi karun", "memo": null }, "geometry": { "type": "Point", "coordinates": [ 124.333049381, 40.457548086000024 ] } },
{ "type": "Feature", "properties": { "name_chf": "鹼廠營卡倫", "name_ma": "giyamcan karun", "name_chj": "碱厂营卡伦", "name_alias": null, "time": "건륭중기", "zone": "변내카룬/jasei dorgi karun", "memo": null }, "geometry": { "type": "Point", "coordinates": [ 124.4805923360001, 41.254582384000066 ] } },
{ "type": "Feature", "properties": { "name_chf": "平頂山卡倫", "name_ma": "ping ding xan karun", "name_chj": "平頂山卡伦", "name_alias": null, "time": "건륭중기", "zone": "변내카룬/jasei dorgi karun", "memo": null }, "geometry": { "type": "Point", "coordinates": [ 124.766462607000108, 41.416840566000076 ] } },
{ "type": "Feature", "properties": { "name_chf": "商家臺卡倫", "name_ma": "xang giya tai karun", "name_chj": "商家台卡伦", "name_alias": null, "time": "건륭중기", "zone": "변내카룬/jasei dorgi karun", "memo": null }, "geometry": { "type": "Point", "coordinates": [ 124.976779380000053, 42.35974709300006 ] } },
{ "type": "Feature", "properties": { "name_chf": "鐵佛寺卡倫", "name_ma": null, "name_chj": "铁佛寺卡伦", "name_alias": null, "time": "건륭중기", "zone": "변내카룬/jasei dorgi karun", "memo": null }, "geometry": { "type": "Point", "coordinates": [ 124.316064105000024, 40.700112328000031 ] } },
{ "type": "Feature", "properties": { "name_chf": "三家子卡倫", "name_ma": "san giya dzi karun", "name_chj": "三家子卡伦", "name_alias": null, "time": "건륭중기", "zone": "변내카룬/jasei dorgi karun", "memo": null }, "geometry": { "type": "Point", "coordinates": [ 125.253358074000076, 41.758837902000039 ] } },
{ "type": "Feature", "properties": { "name_chf": "花家溝卡倫", "name_ma": "hvwa giya geo karun", "name_chj": "花家沟卡伦", "name_alias": null, "time": "건륭중기", "zone": "변내카룬/jasei dorgi karun", "memo": null }, "geometry": { "type": "Point", "coordinates": [ 124.401938023000071, 42.573575834000053 ] } },
{ "type": "Feature", "properties": { "name_chf": "新台卡倫", "name_ma": "sin tai karun", "name_chj": "新台卡伦", "name_alias": null, "time": "건륭중기", "zone": "변내카룬/jasei dorgi karun", "memo": null }, "geometry": { "type": "Point", "coordinates": [ 124.737673407000102, 42.434891502 ] } },
{ "type": "Feature", "properties": { "name_chf": "馬家寨卡倫", "name_ma": "ma ciyan jai", "name_chj": "马家寨卡伦", "name_alias": null, "time": "건륭중기", "zone": "변내카룬/jasei dorgi karun", "memo": null }, "geometry": { "type": "Point", "coordinates": [ 124.893467861511212, 42.08961267970691 ] } },
{ "type": "Feature", "properties": { "name_chf": "哈哩山卡倫", "name_ma": "harsa karun", "name_chj": "哈哩山卡伦", "name_alias": "哈爾撒卡倫", "time": "건륭중기", "zone": "변내카룬/jasei dorgi karun", "memo": null }, "geometry": { "type": "Point", "coordinates": [ 124.822274178000058, 41.626346871000074 ] } },
{ "type": "Feature", "properties": { "name_chf": "多興阿台卡倫", "name_ma": "dongsingga tai", "name_chj": "多兴阿台卡伦", "name_alias": "東昌臺卡倫", "time": "건륭중기", "zone": "변내카룬/jasei dorgi karun", "memo": null }, "geometry": { "type": "Point", "coordinates": [ 125.153654394881627, 41.695519798642287 ] } },
{ "type": "Feature", "properties": { "name_chf": "石棚溝卡倫", "name_ma": null, "name_chj": "石棚沟卡伦", "name_alias": null, "time": "건륭중기", "zone": "변내카룬/jasei dorgi karun", "memo": null }, "geometry": { "type": "Point", "coordinates": [ 124.752184571000058, 41.480787356000064 ] } },
{ "type": "Feature", "properties": { "name_chf": "李家臺", "name_ma": "li giya tai", "name_chj": "李家台", "name_alias": null, "time": "강희말기", "zone": "변대/jasei tai", "memo": null }, "geometry": { "type": "Point", "coordinates": [ 124.645833333000041, 42.370833333000064 ] } },
{ "type": "Feature", "properties": { "name_chf": "耿家莊臺", "name_ma": "geng giya juwang tai", "name_chj": "耿家庄台", "name_alias": null, "time": "강희말기", "zone": "변대/jasei tai", "memo": null }, "geometry": { "type": "Point", "coordinates": [ 124.477838854000098, 42.522648035000032 ] } },
{ "type": "Feature", "properties": { "name_chf": "商家臺", "name_ma": "xang giya tai", "name_chj": "商家台", "name_alias": null, "time": "강희말기", "zone": "변대/jasei tai", "memo": null }, "geometry": { "type": "Point", "coordinates": [ 124.976779380000053, 42.35974709300006 ] } },
{ "type": "Feature", "properties": { "name_chf": "葦子谷臺", "name_ma": "wei dzi ioi tai", "name_chj": "苇子谷台", "name_alias": null, "time": "강희말기", "zone": "변대/jasei tai", "memo": null }, "geometry": { "type": "Point", "coordinates": [ 124.5125, 41.445833333000046 ] } },
{ "type": "Feature", "properties": { "name_chf": "馬前寨臺", "name_ma": "ma ciyan jai tai", "name_chj": "马前寨卡伦", "name_alias": null, "time": "강희말기", "zone": "변대/jasei tai", "memo": null }, "geometry": { "type": "Point", "coordinates": [ 124.893467861511212, 42.089612679706882 ] } },
{ "type": "Feature", "properties": { "name_chf": "東昌臺", "name_ma": "dung cang tai", "name_chj": "东昌卡伦", "name_alias": null, "time": "강희말기", "zone": "변대/jasei tai", "memo": null }, "geometry": { "type": "Point", "coordinates": [ 125.153654394881627, 41.695519798642287 ] } },
{ "type": "Feature", "properties": { "name_chf": "哈爾撒臺", "name_ma": "harsa tai", "name_chj": "哈尔撒台", "name_alias": null, "time": "강희말기", "zone": "변대/jasei tai", "memo": null }, "geometry": { "type": "Point", "coordinates": [ 124.822274178000058, 41.626346871000074 ] } },
{ "type": "Feature", "properties": { "name_chf": "帽兒山卡倫", "name_ma": "mahala alin karun", "name_chj": "帽儿山卡伦", "name_alias": "紅石䃳子卡倫/福爾兼哈達卡倫/fulgiyan", "time": "가경9년", "zone": "변외카룬/jasei tulergi karun", "memo": null }, "geometry": { "type": "Point", "coordinates": [ 126.51901620000001, 41.938054020000038 ] } },
{ "type": "Feature", "properties": { "name_chf": "輝發霍吞卡倫", "name_ma": "hoiha hoton karun", "name_chj": "辉发霍吞卡伦", "name_alias": null, "time": "가경9년", "zone": "변외카룬/jasei tulergi karun", "memo": null }, "geometry": { "type": "Point", "coordinates": [ 126.188417078000029, 42.735201208000042 ] } },
{ "type": "Feature", "properties": { "name_chf": "哈尔敏河卡倫", "name_ma": "halmin bira karun", "name_chj": "哈尔敏河卡伦", "name_alias": "halmin karun", "time": "가경9년", "zone": "변외카룬/jasei tulergi karun", "memo": null }, "geometry": { "type": "Point", "coordinates": [ 125.922285791000036, 41.785437337000076 ] } },
{ "type": "Feature", "properties": { "name_chf": "楊木林子卡倫", "name_ma": "yang mu lin dzi karun", "name_chj": "杨木林子卡伦", "name_alias": null, "time": "가경9년", "zone": "변외카룬/jasei tulergi karun", "memo": null }, "geometry": { "type": "Point", "coordinates": [ 125.741738505000072, 40.875455267000056 ] } },
{ "type": "Feature", "properties": { "name_chf": "榆樹林子卡倫", "name_ma": "ioi xu lin dzi karun", "name_chj": "榆树林子卡伦", "name_alias": null, "time": "가경9년", "zone": "변외카룬/jasei tulergi karun", "memo": null }, "geometry": { "type": "Point", "coordinates": [ 125.904166667000041, 40.904166667000027 ] } },
{ "type": "Feature", "properties": { "name_chf": "大羅圈溝卡倫", "name_ma": "da lo kiowan geo holo karun", "name_chj": "大罗圈沟卡伦", "name_alias": null, "time": "가경9년", "zone": "변외카룬/jasei tulergi karun", "memo": null }, "geometry": { "type": "Point", "coordinates": [ 126.200502735000086, 41.754127047000033 ] } },
{ "type": "Feature", "properties": { "name_chf": "六道河卡倫", "name_ma": "lio doo ho karun", "name_chj": "六道河卡伦", "name_alias": null, "time": "가경9년", "zone": "변외카룬/jasei tulergi karun", "memo": null }, "geometry": { "type": "Point", "coordinates": [ 125.585640407000014, 41.370807262000021 ] } },
{ "type": "Feature", "properties": { "name_chf": "礦洞溝卡倫", "name_ma": "gung dung geo", "name_chj": "矿洞沟卡伦", "name_alias": null, "time": "가경9년", "zone": "변외카룬/jasei tulergi karun", "memo": null }, "geometry": { "type": "Point", "coordinates": [ 125.820100129000011, 41.282094330000064 ] } },
{ "type": "Feature", "properties": { "name_chf": "大雅爾河卡倫", "name_ma": "da yal ho bira", "name_chj": "大雅尔河卡伦", "name_alias": null, "time": "가경9년", "zone": "변외카룬/jasei tulergi karun", "memo": null }, "geometry": { "type": "Point", "coordinates": [ 125.322405689000107, 41.207216877000064 ] } },
{ "type": "Feature", "properties": { "name_chf": "小黃溝口卡倫", "name_ma": "siyoo hvwang geo keo karun", "name_chj": "小黄沟口卡伦", "name_alias": null, "time": "가경9년", "zone": "변외카룬/jasei tulergi karun", "memo": null }, "geometry": { "type": "Point", "coordinates": [ 125.257112332, 40.642978070000034 ] } },
{ "type": "Feature", "properties": { "name_chf": "古河口卡倫", "name_ma": "gu ho birai angga", "name_chj": "古河口卡伦", "name_alias": null, "time": "가경9년", "zone": "변외카룬/jasei tulergi karun", "memo": null }, "geometry": { "type": "Point", "coordinates": [ 125.258171509000036, 40.932295647000039 ] } },
{ "type": "Feature", "properties": { "name_chf": "頭道江卡倫", "name_ma": "teo doo giyang karun", "name_chj": "头道江卡伦", "name_alias": null, "time": "가경9년", "zone": "변외카룬/jasei tulergi karun", "memo": null }, "geometry": { "type": "Point", "coordinates": [ 125.967710446000083, 41.73370110000009 ] } },
{ "type": "Feature", "properties": { "name_chf": "碗口卡倫", "name_ma": "wan keo karun", "name_chj": "碗口卡伦", "name_alias": null, "time": "가경9년", "zone": "변외카룬/jasei tulergi karun", "memo": null }, "geometry": { "type": "Point", "coordinates": [ 125.685917889000052, 42.129111050000056 ] } },
{ "type": "Feature", "properties": { "name_chf": "那哩琿畢喇昻阿卡倫", "name_ma": "narhvn birai angga", "name_chj": "那哩珲毕喇昻阿卡伦", "name_alias": null, "time": "가경9년", "zone": "변외카룬/jasei tulergi karun", "memo": null }, "geometry": { "type": "Point", "coordinates": [ 127.161748208000077, 42.635028258000034 ] } },
{ "type": "Feature", "properties": { "name_chf": "中江卡倫", "name_ma": "jung giyang karun", "name_chj": "中江卡伦", "name_alias": null, "time": "가경9년", "zone": "변외카룬/jasei tulergi karun", "memo": null }, "geometry": { "type": "Point", "coordinates": [ 124.47222914200006, 40.188575273000033 ] } },
{ "type": "Feature", "properties": { "name_chf": "大江口卡倫", "name_ma": "da giyang keo karun", "name_chj": "大江口卡伦", "name_alias": null, "time": "가경9년", "zone": "변외카룬/jasei tulergi karun", "memo": null }, "geometry": { "type": "Point", "coordinates": [ 124.915751427000032, 40.481996919000046 ] } },
{ "type": "Feature", "properties": { "name_chf": "三道郎頭卡倫", "name_ma": "san doo lang teo karun", "name_chj": "三道郞头卡伦", "name_alias": null, "time": "가경9년", "zone": "변외카룬/jasei tulergi karun", "memo": null }, "geometry": { "type": "Point", "coordinates": [ 124.335845425012266, 40.020894950034155 ] } },
{ "type": "Feature", "properties": { "name_chf": "碗口卡倫", "name_ma": "wan keo karun", "name_chj": "碗口卡伦", "name_alias": null, "time": "건륭중기", "zone": "변외카룬/jasei tulergi karun", "memo": null }, "geometry": { "type": "Point", "coordinates": [ 125.685917889000052, 42.129111050000056 ] } },
{ "type": "Feature", "properties": { "name_chf": "中江卡倫", "name_ma": "jung giyang karun", "name_chj": "中江卡伦", "name_alias": null, "time": "건륭중기", "zone": "변외카룬/jasei tulergi karun", "memo": null }, "geometry": { "type": "Point", "coordinates": [ 124.47222914200006, 40.188575273000033 ] } },
{ "type": "Feature", "properties": { "name_chf": "大江口卡倫", "name_ma": "da giyang keo karun", "name_chj": "大江口卡伦", "name_alias": null, "time": "건륭중기", "zone": "변외카룬/jasei tulergi karun", "memo": null }, "geometry": { "type": "Point", "coordinates": [ 124.915751427000032, 40.481996919000046 ] } },
{ "type": "Feature", "properties": { "name_chf": "三道郞頭卡倫", "name_ma": "san doo lang teo karun", "name_chj": "三道郞头卡伦", "name_alias": null, "time": "건륭중기", "zone": "변외카룬/jasei tulergi karun", "memo": null }, "geometry": { "type": "Point", "coordinates": [ 124.335845425012266, 40.020894950034155 ] } },
{ "type": "Feature", "properties": { "name_chf": "大南溝卡倫", "name_ma": null, "name_chj": "大南沟卡伦", "name_alias": null, "time": "건륭중기", "zone": "변외카룬/jasei tulergi karun", "memo": null }, "geometry": { "type": "Point", "coordinates": [ 124.8625, 41.229166667000051 ] } },
{ "type": "Feature", "properties": { "name_chf": "長嶺子卡倫", "name_ma": null, "name_chj": "长岭子卡伦", "name_alias": null, "time": "건륭중기", "zone": "변외카룬/jasei tulergi karun", "memo": null }, "geometry": { "type": "Point", "coordinates": [ 124.688236122000049, 40.804633585000026 ] } },
{ "type": "Feature", "properties": { "name_chf": "發畢喇卡倫", "name_ma": "fa bira karun", "name_chj": "发毕喇卡伦", "name_alias": null, "time": "건륭중기", "zone": "변외카룬/jasei tulergi karun", "memo": null }, "geometry": { "type": "Point", "coordinates": [ 126.683321048000053, 42.842737860000057 ] } },
{ "type": "Feature", "properties": { "name_chf": "那哩琿畢喇昻阿卡倫", "name_ma": "narhvn birai angga", "name_chj": "那哩珲毕喇昻阿卡伦", "name_alias": null, "time": "건륭중기", "zone": "변외카룬/jasei tulergi karun", "memo": null }, "geometry": { "type": "Point", "coordinates": [ 127.161748208000077, 42.635028258000034 ] } },
{ "type": "Feature", "properties": { "name_chf": "輝發畢喇昂阿卡倫", "name_ma": "hoifa birai angga karun", "name_chj": "辉发毕喇昂阿卡伦", "name_alias": null, "time": "건륭중기", "zone": "변외카룬/jasei tulergi karun", "memo": null }, "geometry": { "type": "Point", "coordinates": [ 126.988480530000061, 43.150243981000067 ] } },
{ "type": "Feature", "properties": { "name_chf": "輝發湖屯卡倫", "name_ma": "hoifa hoton karun", "name_chj": "辉发湖屯卡伦", "name_alias": null, "time": "건륭중기", "zone": "변외카룬/jasei tulergi karun", "memo": null }, "geometry": { "type": "Point", "coordinates": [ 126.188417078000029, 42.735201208000042 ] } },
{ "type": "Feature", "properties": { "name_chf": "紅石䃳子卡倫", "name_ma": "hvng xi la dzi karun", "name_chj": "红石砬子卡伦", "name_alias": "福爾兼哈達卡倫/fulgiyan hada karun", "time": "건륭중기", "zone": "변외카룬/jasei tulergi karun", "memo": null }, "geometry": { "type": "Point", "coordinates": [ 126.51901620000001, 41.938054020000038 ] } },
{ "type": "Feature", "properties": { "name_chf": "斡爾敏卡倫", "name_ma": "halmin karun", "name_chj": "斡尔敏卡伦", "name_alias": "walmin karun", "time": "건륭중기", "zone": "변외카룬/jasei tulergi karun", "memo": null }, "geometry": { "type": "Point", "coordinates": [ 125.922285791000036, 41.785437337000076 ] } },
{ "type": "Feature", "properties": { "name_chf": "棋盤嶺卡倫", "name_ma": null, "name_chj": "棋盘岭卡伦", "name_alias": null, "time": "건륭중기", "zone": "변외카룬/jasei tulergi karun", "memo": null }, "geometry": { "type": "Point", "coordinates": [ 124.866591570000082, 40.696952941000042 ] } },
{ "type": "Feature", "properties": { "name_chf": "長嶺子卡倫", "name_ma": null, "name_chj": "长岭子卡伦", "name_alias": null, "time": "옹정초기", "zone": "변외카룬/jasei tulergi karun", "memo": null }, "geometry": { "type": "Point", "coordinates": [ 124.688236122000049, 40.804633585000026 ] } },
{ "type": "Feature", "properties": { "name_chf": "輝發卡倫", "name_ma": "hoifa karun", "name_chj": "辉发卡伦", "name_alias": null, "time": "옹정초기", "zone": "변외카룬/jasei tulergi karun", "memo": null }, "geometry": { "type": "Point", "coordinates": [ 126.188417078000029, 42.735201208000042 ] } },
{ "type": "Feature", "properties": { "name_chf": "福爾兼哈達卡倫", "name_ma": "fulgiyan hada karun", "name_chj": "福尔兼哈达卡伦", "name_alias": "紅石䃳子卡倫/hvng xi la dzi karun", "time": "옹정초기", "zone": "변외카룬/jasei tulergi karun", "memo": null }, "geometry": { "type": "Point", "coordinates": [ 126.51901620000001, 41.938054020000038 ] } },
{ "type": "Feature", "properties": { "name_chf": "費德里卡倫", "name_ma": "feideri karun", "name_chj": "费德里卡伦", "name_alias": null, "time": "옹정초기", "zone": "변외카룬/jasei tulergi karun", "memo": null }, "geometry": { "type": "Point", "coordinates": [ 125.685917889000052, 42.129111050000056 ] } },
{ "type": "Feature", "properties": { "name_chf": "永甸卡倫", "name_ma": "yung diyan karun", "name_chj": "永甸卡伦", "name_alias": null, "time": "옹정초기", "zone": "변외카룬/jasei tulergi karun", "memo": null }, "geometry": { "type": "Point", "coordinates": [ 124.838454839000065, 40.558077406000045 ] } },
{ "type": "Feature", "properties": { "name_chf": "伊米孫卡倫", "name_ma": "imsun karun", "name_chj": "伊米孙卡伦", "name_alias": null, "time": "옹정초기", "zone": "변외카룬/jasei tulergi karun", "memo": null }, "geometry": { "type": "Point", "coordinates": [ 125.429166667000118, 41.770833333000049 ] } },
{ "type": "Feature", "properties": { "name_chf": "嘉勒圖庫卡倫", "name_ma": "giyaltukv karun", "name_chj": "嘉勒图库卡伦", "name_alias": null, "time": "옹정초기", "zone": "변외카룬/jasei tulergi karun", "memo": null }, "geometry": { "type": "Point", "coordinates": [ 125.5875, 41.720833333000037 ] } },
{ "type": "Feature", "properties": { "name_chf": "古河卡倫", "name_ma": "gu ho birai angga", "name_chj": "古河卡伦", "name_alias": null, "time": "옹정초기", "zone": "변외카룬/jasei tulergi karun", "memo": null }, "geometry": { "type": "Point", "coordinates": [ 125.258171509000036, 40.932295647000039 ] } },
{ "type": "Feature", "properties": { "name_chf": "東阿卡倫", "name_ma": "donggo karun", "name_chj": "东阿卡伦", "name_alias": null, "time": "옹정초기", "zone": "변외카룬/jasei tulergi karun", "memo": null }, "geometry": { "type": "Point", "coordinates": [ 124.8625, 41.229166667000051 ] } },
{ "type": "Feature", "properties": { "name_chf": "三叉子卡倫", "name_ma": "san tsa dzi karun", "name_chj": "三叉子卡伦", "name_alias": null, "time": "옹정초기", "zone": "변외카룬/jasei tulergi karun", "memo": null }, "geometry": { "type": "Point", "coordinates": [ 124.939929110000108, 40.585072463000074 ] } },
{ "type": "Feature", "properties": { "name_chf": "湯寶城卡倫", "name_ma": null, "name_chj": "汤宝城卡伦", "name_alias": null, "time": "옹정초기", "zone": "변외카룬/jasei tulergi karun", "memo": null }, "geometry": { "type": "Point", "coordinates": [ 124.333049381, 40.457548086000024 ] } },
{ "type": "Feature", "properties": { "name_chf": "石頭城卡倫", "name_ma": null, "name_chj": "石头城卡伦", "name_alias": null, "time": "옹정초기", "zone": "변외카룬/jasei tulergi karun", "memo": null }, "geometry": { "type": "Point", "coordinates": [ 124.312034571000027, 40.639239454000062 ] } },
{ "type": "Feature", "properties": { "name_chf": "寬甸卡倫", "name_ma": "kuwan diyan karun", "name_chj": "宽甸卡伦", "name_alias": null, "time": "옹정초기", "zone": "변외카룬/jasei tulergi karun", "memo": null }, "geometry": { "type": "Point", "coordinates": [ 124.782243723000093, 40.731081648000043 ] } },
{ "type": "Feature", "properties": { "name_chf": "鴨爾河卡倫", "name_ma": "yalhv karun", "name_chj": "鸭尔河卡伦", "name_alias": null, "time": "옹정초기", "zone": "변외카룬/jasei tulergi karun", "memo": null }, "geometry": { "type": "Point", "coordinates": [ 125.322405689000107, 41.207216877000064 ] } },
{ "type": "Feature", "properties": { "name_chf": "朱爾和阿師哈卡倫", "name_ma": "jurho asiha karun", "name_chj": "朱尔和阿師哈卡伦", "name_alias": null, "time": "옹정초기", "zone": "변외카룬/jasei tulergi karun", "memo": null }, "geometry": { "type": "Point", "coordinates": [ 125.361324204000098, 41.363676511000065 ] } },
{ "type": "Feature", "properties": { "name_chf": "古山子樓房卡倫(1)", "name_ma": null, "name_chj": "古山子楼房卡伦(1)", "name_alias": null, "time": "옹정초기", "zone": "변외카룬/jasei tulergi karun", "memo": null }, "geometry": { "type": "Point", "coordinates": [ 124.779955032000089, 40.684438998000076 ] } },
{ "type": "Feature", "properties": { "name_chf": "噶三和羅佛鈕卡倫", "name_ma": "gasangga holo karun", "name_chj": "噶三和罗佛钮卡伦", "name_alias": null, "time": "옹정초기", "zone": "변외카룬/jasei tulergi karun", "memo": null }, "geometry": { "type": "Point", "coordinates": [ 125.062500000000114, 42.1625 ] } },
{ "type": "Feature", "properties": { "name_chf": "土門卡倫(1)", "name_ma": null, "name_chj": "土门卡伦(1)", "name_alias": null, "time": "옹정초기", "zone": "변외카룬/jasei tulergi karun", "memo": null }, "geometry": { "type": "Point", "coordinates": [ 124.4625, 40.5125 ] } },
{ "type": "Feature", "properties": { "name_chf": "土門卡倫(2)", "name_ma": null, "name_chj": "土门卡伦(2)", "name_alias": null, "time": "옹정초기", "zone": "변외카룬/jasei tulergi karun", "memo": null }, "geometry": { "type": "Point", "coordinates": [ 125.036137468000092, 40.998628850000046 ] } },
{ "type": "Feature", "properties": { "name_chf": "古山子樓房卡倫(2)", "name_ma": null, "name_chj": "古山子楼房卡伦(2)", "name_alias": null, "time": "옹정초기", "zone": "변외카룬/jasei tulergi karun", "memo": null }, "geometry": { "type": "Point", "coordinates": [ 124.40423806900003, 40.234998756000039 ] } },
{ "type": "Feature", "properties": { "name_chf": "斜哨卡倫", "name_ma": "siyei xoo karun", "name_chj": "斜哨卡伦", "name_alias": null, "time": "건륭중기", "zone": "변외카룬/jasei tulergi karun", "memo": null }, "geometry": { "type": "Point", "coordinates": [ 124.295520104166599, 40.358605938362544 ] } },
{ "type": "Feature", "properties": { "name_chf": "小石棚卡倫", "name_ma": "siyoo xi peng karun", "name_chj": "小石棚卡伦", "name_alias": null, "time": "도광27년", "zone": "변내카룬/jasei dorgi karun", "memo": null }, "geometry": { "type": "Point", "coordinates": [ 124.464715272000021, 41.143088001000073 ] } },
{ "type": "Feature", "properties": { "name_chf": "頂山拐卡倫", "name_ma": "ding xan gvwai karun", "name_chj": "顶山拐卡伦", "name_alias": null, "time": "도광27년", "zone": "변내카룬/jasei dorgi karun", "memo": null }, "geometry": { "type": "Point", "coordinates": [ 124.300691581000024, 41.383029144000034 ] } },
{ "type": "Feature", "properties": { "name_chf": "佛笑島卡倫", "name_ma": "fe siyoo doo dzi karun", "name_chj": "佛笑岛卡伦", "name_alias": null, "time": "도광27년", "zone": "변내카룬/jasei dorgi karun", "memo": null }, "geometry": { "type": "Point", "coordinates": [ 123.934536340000022, 39.871874420000019 ] } },
{ "type": "Feature", "properties": { "name_chf": "紅石䃳子卡倫", "name_ma": "hvng xi la dzi karun", "name_chj": "红石砬子卡伦", "name_alias": "福爾兼哈達卡倫/fulgiyan hada karun", "time": "도광27년", "zone": "변외카룬/jasei tulergi karun", "memo": null }, "geometry": { "type": "Point", "coordinates": [ 126.51901620000001, 41.938054020000038 ] } },
{ "type": "Feature", "properties": { "name_chf": "輝發霍吞卡倫", "name_ma": "hoiha hoton karun", "name_chj": "辉发霍吞卡伦", "name_alias": null, "time": "도광27년", "zone": "변외카룬/jasei tulergi karun", "memo": null }, "geometry": { "type": "Point", "coordinates": [ 126.188417078000029, 42.735201208000042 ] } },
{ "type": "Feature", "properties": { "name_chf": "哈尔敏河卡倫", "name_ma": "halmin bira karun", "name_chj": "哈尔敏河卡伦", "name_alias": "halmin karun", "time": "도광27년", "zone": "변외카룬/jasei tulergi karun", "memo": null }, "geometry": { "type": "Point", "coordinates": [ 125.922285791000036, 41.785437337000076 ] } },
{ "type": "Feature", "properties": { "name_chf": "楊木林子卡倫", "name_ma": "yang mu lin dzi karun", "name_chj": "杨木林子卡伦", "name_alias": null, "time": "도광27년", "zone": "변외카룬/jasei tulergi karun", "memo": null }, "geometry": { "type": "Point", "coordinates": [ 125.741738505000072, 40.875455267000056 ] } },
{ "type": "Feature", "properties": { "name_chf": "榆樹林子卡倫", "name_ma": "ioi xu lin dzi karun", "name_chj": "榆树林子卡伦", "name_alias": null, "time": "도광27년", "zone": "변외카룬/jasei tulergi karun", "memo": null }, "geometry": { "type": "Point", "coordinates": [ 125.904166667000041, 40.904166667000027 ] } },
{ "type": "Feature", "properties": { "name_chf": "大羅圈溝卡倫", "name_ma": "da lo kiowan geo holo karun", "name_chj": "大罗圈沟卡伦", "name_alias": null, "time": "도광27년", "zone": "변외카룬/jasei tulergi karun", "memo": null }, "geometry": { "type": "Point", "coordinates": [ 126.200502735000086, 41.754127047000033 ] } },
{ "type": "Feature", "properties": { "name_chf": "六道河卡倫", "name_ma": "lio doo ho karun", "name_chj": "六道河卡伦", "name_alias": null, "time": "도광27년", "zone": "변외카룬/jasei tulergi karun", "memo": null }, "geometry": { "type": "Point", "coordinates": [ 125.585640407000014, 41.370807262000021 ] } },
{ "type": "Feature", "properties": { "name_chf": "礦洞溝卡倫", "name_ma": "gung dung geo karun", "name_chj": "矿洞沟卡伦", "name_alias": null, "time": "도광27년", "zone": "변외카룬/jasei tulergi karun", "memo": null }, "geometry": { "type": "Point", "coordinates": [ 125.820100129000011, 41.282094330000064 ] } },
{ "type": "Feature", "properties": { "name_chf": "大雅爾河卡倫", "name_ma": "da yal ho bira karun", "name_chj": "大雅尔河卡伦", "name_alias": null, "time": "도광27년", "zone": "변외카룬/jasei tulergi karun", "memo": null }, "geometry": { "type": "Point", "coordinates": [ 125.322405689000107, 41.207216877000064 ] } },
{ "type": "Feature", "properties": { "name_chf": "小黃溝口卡倫", "name_ma": "siyoo hvwang geo keo karun", "name_chj": "小黄沟口卡伦", "name_alias": null, "time": "도광27년", "zone": "변외카룬/jasei tulergi karun", "memo": null }, "geometry": { "type": "Point", "coordinates": [ 125.257112332, 40.642978070000034 ] } },
{ "type": "Feature", "properties": { "name_chf": "古河口卡倫", "name_ma": "gu ho birai angga karun", "name_chj": "古河口卡伦", "name_alias": null, "time": "도광27년", "zone": "변외카룬/jasei tulergi karun", "memo": null }, "geometry": { "type": "Point", "coordinates": [ 125.258171509000036, 40.932295647000039 ] } },
{ "type": "Feature", "properties": { "name_chf": "頭道江卡倫", "name_ma": "teo doo giyang karun", "name_chj": "头道江卡伦", "name_alias": null, "time": "도광27년", "zone": "변외카룬/jasei tulergi karun", "memo": null }, "geometry": { "type": "Point", "coordinates": [ 125.967710446000083, 41.73370110000009 ] } },
{ "type": "Feature", "properties": { "name_chf": "碗口卡倫", "name_ma": "wan keo karun karun", "name_chj": "碗口卡伦", "name_alias": null, "time": "도광27년", "zone": "변외카룬/jasei tulergi karun", "memo": null }, "geometry": { "type": "Point", "coordinates": [ 125.685917889000052, 42.129111050000056 ] } },
{ "type": "Feature", "properties": { "name_chf": "那哩琿畢喇昻阿卡倫", "name_ma": "narhvn birai angga karun", "name_chj": "那哩珲毕喇昻阿卡伦", "name_alias": null, "time": "도광27년", "zone": "변외카룬/jasei tulergi karun", "memo": null }, "geometry": { "type": "Point", "coordinates": [ 127.161748208000077, 42.635028258000034 ] } },
{ "type": "Feature", "properties": { "name_chf": "中江卡倫", "name_ma": "jung giyang karun", "name_chj": "中江卡伦", "name_alias": null, "time": "도광27년", "zone": "변외카룬/jasei tulergi karun", "memo": null }, "geometry": { "type": "Point", "coordinates": [ 124.47222914200006, 40.188575273000033 ] } },
{ "type": "Feature", "properties": { "name_chf": "大江口卡倫", "name_ma": "da giyang keo karun", "name_chj": "大江口卡伦", "name_alias": null, "time": "도광27년", "zone": "변외카룬/jasei tulergi karun", "memo": null }, "geometry": { "type": "Point", "coordinates": [ 124.915751427000032, 40.481996919000046 ] } },
{ "type": "Feature", "properties": { "name_chf": "帽兒山卡倫", "name_ma": "mahala alin karun", "name_chj": "帽儿山卡伦", "name_alias": "mao el xan karun", "time": "도광27년", "zone": "변외카룬/jasei tulergi karun", "memo": null }, "geometry": { "type": "Point", "coordinates": [ 126.897356479458921, 41.810025776493859 ] } },
{ "type": "Feature", "properties": { "name_chf": "三道郎頭卡倫", "name_ma": "san doo lang teo karun", "name_chj": "三道郞头卡伦", "name_alias": null, "time": "도광27년", "zone": "변외카룬/jasei tulergi karun", "memo": null }, "geometry": { "type": "Point", "coordinates": [ 124.335845425012266, 40.020894950034155 ] } },
{ "type": "Feature", "properties": { "name_chf": "蒙古霍洛卡倫", "name_ma": "monggo holo karun", "name_chj": "蒙古霍罗卡伦", "name_alias": null, "time": "가경23년", "zone": "위장카룬/aba hoigan i karun", "memo": null }, "geometry": { "type": "Point", "coordinates": [ 124.471283266000114, 42.789903732000035 ] } },
{ "type": "Feature", "properties": { "name_chf": "雙榆樹卡倫", "name_ma": null, "name_chj": "双榆树卡伦", "name_alias": null, "time": "가경23년", "zone": "위장카룬/aba hoigan i karun", "memo": null }, "geometry": { "type": "Point", "coordinates": [ 124.621513051000079, 42.887353205000061 ] } },
{ "type": "Feature", "properties": { "name_chf": "克爾蘇卡倫", "name_ma": "kersu karun", "name_chj": "克尔苏卡伦", "name_alias": null, "time": "가경23년", "zone": "위장카룬/aba hoigan i karun", "memo": null }, "geometry": { "type": "Point", "coordinates": [ 124.864651736000027, 43.028346428000077 ] } },
{ "type": "Feature", "properties": { "name_chf": "歸勒哈卡倫", "name_ma": "guilehe karun", "name_chj": "归勒合卡伦", "name_alias": null, "time": "가경23년", "zone": "위장카룬/aba hoigan i karun", "memo": null }, "geometry": { "type": "Point", "coordinates": [ 125.024347850000026, 43.095432590000016 ] } },
{ "type": "Feature", "properties": { "name_chf": "孤山河卡倫", "name_ma": null, "name_chj": "孤山河卡伦", "name_alias": null, "time": "가경23년", "zone": "위장카룬/aba hoigan i karun", "memo": null }, "geometry": { "type": "Point", "coordinates": [ 125.260742307000086, 43.166365601000045 ] } },
{ "type": "Feature", "properties": { "name_chf": "那丹伯卡倫", "name_ma": "nadan fe karun", "name_chj": "那丹伯卡伦", "name_alias": null, "time": "가경23년", "zone": "위장카룬/aba hoigan i karun", "memo": null }, "geometry": { "type": "Point", "coordinates": [ 125.481026398000054, 43.180182542000068 ] } },
{ "type": "Feature", "properties": { "name_chf": "大沙河卡倫", "name_ma": null, "name_chj": "大沙河卡伦", "name_alias": null, "time": "가경23년", "zone": "위장카룬/aba hoigan i karun", "memo": null }, "geometry": { "type": "Point", "coordinates": [ 125.42665630800002, 42.874204149000036 ] } },
{ "type": "Feature", "properties": { "name_chf": "臺必拉卡倫", "name_ma": "tai bira kaun", "name_chj": "台必拉卡伦", "name_alias": null, "time": "가경23년", "zone": "위장카룬/aba hoigan i karun", "memo": null }, "geometry": { "type": "Point", "coordinates": [ 124.452095543000055, 42.622769355000052 ] } },
{ "type": "Feature", "properties": { "name_chf": "西半拉河卡倫", "name_ma": "sibari bira karun", "name_chj": "西半拉河卡伦", "name_alias": null, "time": "가경23년", "zone": "위장카룬/aba hoigan i karun", "memo": null }, "geometry": { "type": "Point", "coordinates": [ 124.668814973000039, 42.602197044000036 ] } },
{ "type": "Feature", "properties": { "name_chf": "大荒溝卡倫", "name_ma": null, "name_chj": "大荒沟卡伦", "name_alias": null, "time": "가경23년", "zone": "위장카룬/aba hoigan i karun", "memo": null }, "geometry": { "type": "Point", "coordinates": [ 124.95963559300003, 42.404088104000039 ] } },
{ "type": "Feature", "properties": { "name_chf": "土口子卡倫", "name_ma": "tu keo dzi karun", "name_chj": "土口子卡伦", "name_alias": null, "time": "가경23년", "zone": "위장카룬/aba hoigan i karun", "memo": null }, "geometry": { "type": "Point", "coordinates": [ 125.282726446000083, 42.340846654000075 ] } },
{ "type": "Feature", "properties": { "name_chf": "梅河卡倫", "name_ma": "meihe karun", "name_chj": "梅河卡伦", "name_alias": null, "time": "가경23년", "zone": "위장카룬/aba hoigan i karun", "memo": null }, "geometry": { "type": "Point", "coordinates": [ 125.649223820000103, 42.527794429000046 ] } },
{ "type": "Feature", "properties": { "name_chf": "小三道溝卡倫", "name_ma": null, "name_chj": "小三道沟卡伦", "name_alias": null, "time": "도광27년", "zone": "변외카룬/jasei tulergi karun", "memo": null }, "geometry": { "type": "Point", "coordinates": [ 126.558181085421936, 41.612500011960307 ] } },
{ "type": "Feature", "properties": { "name_chf": "古城卡倫", "name_ma": null, "name_chj": "古城卡伦", "name_alias": null, "time": "도광27년", "zone": "변외카룬/jasei tulergi karun", "memo": null }, "geometry": { "type": "Point", "coordinates": [ 126.182313639568505, 41.121108112443608 ] } }
]
}
