{
"type": "FeatureCollection",
"name": "manchu_giyamun",
"crs": { "type": "name", "properties": { "name": "urn:ogc:def:crs:OGC:1.3:CRS84" } },
"features": [
{ "type": "Feature", "properties": { "name_chf": "寧遠站", "name_ma": "ning yuwan giyamun", "name_chj": "宁远站", "name_alias": null, "admin": "성경장군", "memo": null }, "geometry": { "type": "Point", "coordinates": [ 120.743572494000091, 40.622571128000075 ] } },
{ "type": "Feature", "properties": { "name_chf": "伊巴丹站", "name_ma": "ibadan giyamun", "name_chj": "伊巴丹站", "name_alias": null, "admin": "길림장군", "memo": null }, "geometry": { "type": "Point", "coordinates": [ 125.406967280933173, 43.433703955283171 ] } },
{ "type": "Feature", "properties": { "name_chf": "蘇斡延站", "name_ma": "suwayan giyamun", "name_chj": "苏斡延站", "name_alias": null, "admin": "길림장군", "memo": null }, "geometry": { "type": "Point", "coordinates": [ 125.658153820745795, 43.525304041547265 ] } },
{ "type": "Feature", "properties": { "name_chf": "伊勒們站", "name_ma": "ilmen giyamun", "name_chj": "伊勒们站", "name_alias": null, "admin": "길림장군", "memo": null }, "geometry": { "type": "Point", "coordinates": [ 125.884878719000085, 43.636488079000053 ] } },
{ "type": "Feature", "properties": { "name_chf": "蒐登站", "name_ma": "seoden giyamun", "name_chj": "蒐登站", "name_alias": "蒐登站", "admin": "길림장군", "memo": null }, "geometry": { "type": "Point", "coordinates": [ 126.223372573504705, 43.838661450600043 ] } },
{ "type": "Feature", "properties": { "name_chf": "噶布拉站", "name_ma": "gabula giyamun", "name_chj": "噶布拉站", "name_alias": "噶布拉站", "admin": "성경장군", "memo": null }, "geometry": { "type": "Point", "coordinates": [ 123.852417636411587, 41.867828120011723 ] } },
{ "type": "Feature", "properties": { "name_chf": "薩爾滸站", "name_ma": "sarhv giyamun", "name_chj": "萨尔浒站", "name_alias": "薩爾滸站", "admin": "성경장군", "memo": null }, "geometry": { "type": "Point", "coordinates": [ 124.258067159000021, 41.898344489000067 ] } },
{ "type": "Feature", "properties": { "name_chf": "迎水寺站", "name_ma": "ing sui sy giyamun", "name_chj": "迎水寺站", "name_alias": "迎水寺站", "admin": "성경장군", "memo": null }, "geometry": { "type": "Point", "coordinates": [ 123.218554489000098, 41.281438893000043 ] } },
{ "type": "Feature", "properties": { "name_chf": "大孤山站", "name_ma": "altan emel giyamun", "name_chj": "大孤山站", "name_alias": "大孤山站", "admin": "길림장군", "memo": null }, "geometry": { "type": "Point", "coordinates": [ 125.127735514427641, 43.300547174351223 ] } },
{ "type": "Feature", "properties": { "name_chf": "拉發河", "name_ma": "lafa giyamun", "name_chj": "拉发河", "name_alias": "拉發河", "admin": "길림장군", "memo": null }, "geometry": { "type": "Point", "coordinates": [ 127.328793407584186, 43.824815165334243 ] } },
{ "type": "Feature", "properties": { "name_chf": "圖依屯站", "name_ma": "toitun giyamun", "name_chj": "图依屯站", "name_alias": "圖依屯站", "admin": "길림장군", "memo": null }, "geometry": { "type": "Point", "coordinates": [ 127.66225907418206, 43.917975929003909 ] } },
{ "type": "Feature", "properties": { "name_chf": "鄂摩和索羅站", "name_ma": "omoho soro giyamun", "name_chj": "鄂摩和素罗站", "name_alias": "鄂摩和索羅站", "admin": "길림장군", "memo": null }, "geometry": { "type": "Point", "coordinates": [ 128.150521016919726, 43.738181621278166 ] } },
{ "type": "Feature", "properties": { "name_chf": "沙蘭站", "name_ma": "xaran giyamun", "name_chj": "沙兰站", "name_alias": "沙蘭站", "admin": "길림장군", "memo": null }, "geometry": { "type": "Point", "coordinates": [ 128.971694006000348, 44.165895189294979 ] } },
{ "type": "Feature", "properties": { "name_chf": "畢爾罕畢喇站", "name_ma": "birgan giyamun", "name_chj": "毕尔罕毕喇站", "name_alias": "畢爾罕畢喇站", "admin": "길림장군", "memo": null }, "geometry": { "type": "Point", "coordinates": [ 128.696947365000028, 43.961267585000023 ] } },
{ "type": "Feature", "properties": { "name_chf": "額赫茂站", "name_ma": "ehemu giyamun", "name_chj": "额赫茂站", "name_alias": "額赫茂站", "admin": "길림장군", "memo": null }, "geometry": { "type": "Point", "coordinates": [ 126.91154644400001, 43.907172028000041 ] } },
{ "type": "Feature", "properties": { "name_chf": "克爾素站", "name_ma": "kersu giyamun", "name_chj": "克尔素站", "name_alias": "克爾素站", "admin": "길림장군", "memo": null }, "geometry": { "type": "Point", "coordinates": [ 124.838065354307403, 43.175651338735818 ] } },
{ "type": "Feature", "properties": { "name_chf": "蒙古霍羅站", "name_ma": "monggo holo giyamun", "name_chj": "棉花街站", "name_alias": "棉花街站/蒙古伙羅站", "admin": "길림장군", "memo": null }, "geometry": { "type": "Point", "coordinates": [ 124.367142160000057, 42.792465034000024 ] } },
{ "type": "Feature", "properties": { "name_chf": "開原站", "name_ma": "ckai yuwan giyamun", "name_chj": "开原站", "name_alias": "開原站", "admin": "성경장군", "memo": null }, "geometry": { "type": "Point", "coordinates": [ 124.172977082000088, 42.633961162000048 ] } },
{ "type": "Feature", "properties": { "name_chf": "懿路站", "name_ma": "ioi lu giyamun", "name_chj": "懿路站", "name_alias": "懿路站", "admin": "성경장군", "memo": null }, "geometry": { "type": "Point", "coordinates": [ 123.6493166690001, 42.098628729000048 ] } },
{ "type": "Feature", "properties": { "name_chf": "高麗屯站", "name_ma": "cgao li pu giyamun", "name_chj": "高丽屯站", "name_alias": "高麗屯站", "admin": "성경장군", "memo": null }, "geometry": { "type": "Point", "coordinates": [ 123.900795834994497, 42.333706457753578 ] } },
{ "type": "Feature", "properties": { "name_chf": "老邊站", "name_ma": "fe jase giyamun", "name_chj": "老边站", "name_alias": "老邊站", "admin": "성경장군", "memo": null }, "geometry": { "type": "Point", "coordinates": [ 123.175943158000123, 41.972762174000025 ] } },
{ "type": "Feature", "properties": { "name_chf": "巨流河站", "name_ma": "jurhuju giyamun", "name_chj": "巨流河站", "name_alias": "巨流河站", "admin": "성경장군", "memo": null }, "geometry": { "type": "Point", "coordinates": [ 122.95697940200013, 42.051416404000051 ] } },
{ "type": "Feature", "properties": { "name_chf": "白旗堡站", "name_ma": "be qi pu giyamun", "name_chj": "白旗堡站", "name_alias": "白旗堡站", "admin": "성경장군", "memo": null }, "geometry": { "type": "Point", "coordinates": [ 122.587677118000116, 41.873611953000072 ] } },
{ "type": "Feature", "properties": { "name_chf": "二道井站", "name_ma": "el doo jing giyamun", "name_chj": "二道井站", "name_alias": "二道井站", "admin": "성경장군", "memo": null }, "geometry": { "type": "Point", "coordinates": [ 122.331070068000031, 41.827120486000055 ] } },
{ "type": "Feature", "properties": { "name_chf": "小黑山站", "name_ma": "siyoo he xan giyamun", "name_chj": "小黑山站", "name_alias": "小黑山站", "admin": "성경장군", "memo": null }, "geometry": { "type": "Point", "coordinates": [ 122.118338951000055, 41.703480560000052 ] } },
{ "type": "Feature", "properties": { "name_chf": "廣寧站", "name_ma": "guwang ning giyamun", "name_chj": "广宁站", "name_alias": null, "admin": "성경장군", "memo": null }, "geometry": { "type": "Point", "coordinates": [ 121.79871634000007, 41.522933935000026 ] } },
{ "type": "Feature", "properties": { "name_chf": "十三山站", "name_ma": "xi xan giyamun", "name_chj": "十三山站", "name_alias": null, "admin": "성경장군", "memo": null }, "geometry": { "type": "Point", "coordinates": [ 121.527855509, 41.269498941000052 ] } },
{ "type": "Feature", "properties": { "name_chf": "小凌河站", "name_ma": "siyoo ling ho giyamun", "name_chj": "小凌河站", "name_alias": null, "admin": "성경장군", "memo": null }, "geometry": { "type": "Point", "coordinates": [ 121.214146486854574, 41.055823960904966 ] } },
{ "type": "Feature", "properties": { "name_chf": "東關站", "name_ma": "dung guwang giyamun", "name_chj": "东关站", "name_alias": null, "admin": "성경장군", "memo": null }, "geometry": { "type": "Point", "coordinates": [ 120.451569, 40.401967699000082 ] } },
{ "type": "Feature", "properties": { "name_chf": "凉水河站", "name_ma": "liyang xui ho giyamun", "name_chj": "凉水河站", "name_alias": null, "admin": "성경장군", "memo": null }, "geometry": { "type": "Point", "coordinates": [ 120.119163162000063, 40.248034656000073 ] } },
{ "type": "Feature", "properties": { "name_chf": "山海关站", "name_ma": "sanaha giyamun", "name_chj": "山海關站", "name_alias": null, "admin": "성경장군", "memo": null }, "geometry": { "type": "Point", "coordinates": [ 119.767426459000049, 40.006539037000046 ] } },
{ "type": "Feature", "properties": { "name_chf": "十里河站", "name_ma": "xi li ho giyamun", "name_chj": "十里河站", "name_alias": null, "admin": "성경장군", "memo": null }, "geometry": { "type": "Point", "coordinates": [ 123.372932282000093, 41.521208737000045 ] } },
{ "type": "Feature", "properties": { "name_chf": "浪子山站", "name_ma": "lang zi xan giyamun", "name_chj": "浪子山站", "name_alias": null, "admin": "성경장군", "memo": null }, "geometry": { "type": "Point", "coordinates": [ 123.400320712000067, 41.030949310000032 ] } },
{ "type": "Feature", "properties": { "name_chf": "甜水站", "name_ma": "tiyan xui dzan giyamun", "name_chj": "甜水站", "name_alias": null, "admin": "성경장군", "memo": null }, "geometry": { "type": "Point", "coordinates": [ 123.569783325000117, 40.987646225000049 ] } },
{ "type": "Feature", "properties": { "name_chf": "連山關站", "name_ma": "liyan xan guwan giyamun", "name_chj": "连山关站", "name_alias": null, "admin": "성경장군", "memo": null }, "geometry": { "type": "Point", "coordinates": [ 123.755180457000037, 40.967436964000065 ] } },
{ "type": "Feature", "properties": { "name_chf": "雪裏站", "name_ma": "siowei li dzan giyamun", "name_chj": "雪里站", "name_alias": null, "admin": "성경장군", "memo": null }, "geometry": { "type": "Point", "coordinates": [ 123.976768056000097, 40.581677637000041 ] } },
{ "type": "Feature", "properties": { "name_chf": "通遠堡站", "name_ma": "tung yuwan pu giyamun", "name_chj": "通远堡站", "name_alias": null, "admin": "성경장군", "memo": null }, "geometry": { "type": "Point", "coordinates": [ 123.920711238000081, 40.786849879000059 ] } },
{ "type": "Feature", "properties": { "name_chf": "嚴千戶站", "name_ma": null, "name_chj": "严千户站", "name_alias": null, "admin": "성경장군", "memo": null }, "geometry": { "type": "Point", "coordinates": [ 123.192618754000023, 42.265270043000051 ] } },
{ "type": "Feature", "properties": { "name_chf": "舒蘭河站", "name_ma": "xuran giyamun", "name_chj": "舒兰河站", "name_alias": null, "admin": "길림장군", "memo": null }, "geometry": { "type": "Point", "coordinates": [ 126.51684600039367, 44.282794751865367 ] } },
{ "type": "Feature", "properties": { "name_chf": "騰額爾哲庫站", "name_ma": "denggelceku giyamun", "name_chj": "腾额尔哲库站", "name_alias": null, "admin": "길림장군", "memo": null }, "geometry": { "type": "Point", "coordinates": [ 126.428098774018849, 44.659726012845951 ] } },
{ "type": "Feature", "properties": { "name_chf": "舍哩站", "name_ma": "xeri giyamun", "name_chj": "舍哩站", "name_alias": null, "admin": "길림장군", "memo": null }, "geometry": { "type": "Point", "coordinates": [ 125.129702581631463, 45.02524846156826 ] } },
{ "type": "Feature", "properties": { "name_chf": "蒿子站", "name_ma": "hoose giyamun", "name_chj": "蒿子站", "name_alias": null, "admin": "길림장군", "memo": null }, "geometry": { "type": "Point", "coordinates": [ 125.419855762469098, 44.974600662917148 ] } },
{ "type": "Feature", "properties": { "name_chf": "遜札布站", "name_ma": "sunja boo giyamun", "name_chj": "孙札布站", "name_alias": null, "admin": "길림장군", "memo": null }, "geometry": { "type": "Point", "coordinates": [ 125.672912526537047, 44.966178262553804 ] } },
{ "type": "Feature", "properties": { "name_chf": "圖賴昭站", "name_ma": "tolai joo giyamun", "name_chj": "图赖昭站", "name_alias": null, "admin": "길림장군", "memo": null }, "geometry": { "type": "Point", "coordinates": [ 125.91068550292762, 44.853999592475084 ] } },
{ "type": "Feature", "properties": { "name_chf": "蒙古站", "name_ma": "monggo giyamun", "name_chj": "蒙古站", "name_alias": null, "admin": "길림장군", "memo": null }, "geometry": { "type": "Point", "coordinates": [ 126.184464518067145, 44.745313865072447 ] } },
{ "type": "Feature", "properties": { "name_chf": "金州鄂佛羅站", "name_ma": "gin jeo oforo giyamun", "name_chj": "金州鄂佛罗站", "name_alias": "哲松站", "admin": "길림장군", "memo": null }, "geometry": { "type": "Point", "coordinates": [ 126.543976380835659, 44.049907988647774 ] } },
{ "type": "Feature", "properties": { "name_chf": "拉林多觀站", "name_ma": "lalin dogon giyamun", "name_chj": "拉林多观站", "name_alias": null, "admin": "길림장군", "memo": null }, "geometry": { "type": "Point", "coordinates": [ 126.772350338005921, 45.197512491313077 ] } },
{ "type": "Feature", "properties": { "name_chf": "蒙古喀倫站", "name_ma": "monggo karun giyamun", "name_chj": "蒙古卡伦站", "name_alias": null, "admin": "길림장군", "memo": null }, "geometry": { "type": "Point", "coordinates": [ 126.595736177653137, 44.921886181393702 ] } },
{ "type": "Feature", "properties": { "name_chf": "薩庫哩站", "name_ma": null, "name_chj": "萨库哩站", "name_alias": null, "admin": "길림장군", "memo": null }, "geometry": { "type": "Point", "coordinates": [ 126.968868965969506, 45.408652426488814 ] } },
{ "type": "Feature", "properties": { "name_chf": "費克圖站", "name_ma": "fiktu giyamun", "name_chj": "费克图站", "name_alias": null, "admin": "길림장군", "memo": null }, "geometry": { "type": "Point", "coordinates": [ 127.159443619373903, 45.751403843816753 ] } },
{ "type": "Feature", "properties": { "name_chf": "葉赫站", "name_ma": "yehe giyamun", "name_chj": "叶赫站", "name_alias": null, "admin": "길림장군", "memo": null }, "geometry": { "type": "Point", "coordinates": [ 124.539229661000036, 42.94757512100005 ] } },
{ "type": "Feature", "properties": { "name_chf": "穆喜站", "name_ma": "muki giyamun", "name_chj": "穆喜站", "name_alias": null, "admin": "성경장군", "memo": null }, "geometry": { "type": "Point", "coordinates": [ 124.620833321599079, 41.773815987852764 ] } },
{ "type": "Feature", "properties": { "name_chf": "興京城站", "name_ma": "yenden giyamun", "name_chj": "兴京城站", "name_alias": null, "admin": "성경장군", "memo": null }, "geometry": { "type": "Point", "coordinates": [ 124.860146637340065, 41.702477520640258 ] } },
{ "type": "Feature", "properties": { "name_chf": "盛京城站", "name_ma": "mukden hoton giyamun", "name_chj": "盛京城站", "name_alias": null, "admin": "성경장군", "memo": null }, "geometry": { "type": "Point", "coordinates": [ 123.449149588182138, 41.796570285915777 ] } },
{ "type": "Feature", "properties": { "name_chf": "高橋站", "name_ma": "ckao kiyoo giyamun", "name_chj": "高桥站", "name_alias": null, "admin": "성경장군", "memo": null }, "geometry": { "type": "Point", "coordinates": [ 120.999028619000114, 40.89361221300004 ] } },
{ "type": "Feature", "properties": { "name_chf": "鳳凰站", "name_ma": "fuhacan giyamun", "name_chj": "凤凰站", "name_alias": null, "admin": "성경장군", "memo": null }, "geometry": { "type": "Point", "coordinates": [ 124.071049348000074, 40.469052335000079 ] } },
{ "type": "Feature", "properties": { "name_chf": "發庫站", "name_ma": "faku giyamun", "name_chj": "发库站", "name_alias": null, "admin": "성경장군", "memo": null }, "geometry": { "type": "Point", "coordinates": [ 123.402150499000086, 42.502805828000078 ] } },
{ "type": "Feature", "properties": { "name_chf": "尼什哈站", "name_ma": "nisiha giyamun", "name_chj": "尼什哈站", "name_alias": null, "admin": "길림장군", "memo": null }, "geometry": { "type": "Point", "coordinates": [ 126.587198131508075, 43.897273271271963 ] } },
{ "type": "Feature", "properties": { "name_chf": "寧古塔站", "name_ma": "ningguta giyamun", "name_chj": "宁古塔站", "name_alias": null, "admin": "길림장군", "memo": null }, "geometry": { "type": "Point", "coordinates": [ 129.46218288050801, 44.350019925273195 ] } },
{ "type": "Feature", "properties": { "name_chf": "塞勒佛特庫站", "name_ma": null, "name_chj": "塞勒佛特库站", "name_alias": null, "admin": "길림장군", "memo": null }, "geometry": { "type": "Point", "coordinates": [ 127.754232198440789, 45.844039112241646 ] } },
{ "type": "Feature", "properties": { "name_chf": "廟屯站", "name_ma": null, "name_chj": "庙屯站", "name_alias": null, "admin": "길림장군", "memo": null }, "geometry": { "type": "Point", "coordinates": [ 129.524462777563514, 46.329167484184396 ] } },
{ "type": "Feature", "properties": { "name_chf": "鄂爾多穆遜站", "name_ma": null, "name_chj": "鄂尔多穆孙站", "name_alias": null, "admin": "길림장군", "memo": null }, "geometry": { "type": "Point", "coordinates": [ 129.309488814085313, 46.180847191517842 ] } },
{ "type": "Feature", "properties": { "name_chf": "崇古爾庫站", "name_ma": null, "name_chj": "崇古尔库站", "name_alias": null, "admin": "길림장군", "memo": null }, "geometry": { "type": "Point", "coordinates": [ 128.74674219964902, 45.984075446530596 ] } },
{ "type": "Feature", "properties": { "name_chf": "富爾琿站", "name_ma": "fulahvn giyamun", "name_chj": "富尔珲站", "name_alias": null, "admin": "길림장군", "memo": null }, "geometry": { "type": "Point", "coordinates": [ 128.362964659995384, 45.995263311496963 ] } },
{ "type": "Feature", "properties": { "name_chf": "佛斯亨站", "name_ma": "feshen giyamun", "name_chj": "佛斯亨站", "name_alias": null, "admin": "길림장군", "memo": null }, "geometry": { "type": "Point", "coordinates": [ 128.135087960348727, 45.955226072433298 ] } },
{ "type": "Feature", "properties": { "name_chf": "墨爾根站", "name_ma": "mergen hoton giyamun", "name_chj": "墨尔根站", "name_alias": null, "admin": "흑룡강장군", "memo": null }, "geometry": { "type": "Point", "coordinates": [ 125.22319471934351, 49.154887675585741 ] } },
{ "type": "Feature", "properties": { "name_chf": "布克依站", "name_ma": null, "name_chj": "布克依站", "name_alias": null, "admin": "흑룡강장군", "memo": null }, "geometry": { "type": "Point", "coordinates": [ 123.959883804057597, 47.316264221471968 ] } },
{ "type": "Feature", "properties": { "name_chf": "塔拉爾站", "name_ma": "tahar giyamun", "name_chj": "塔拉尔站", "name_alias": null, "admin": "흑룡강장군", "memo": null }, "geometry": { "type": "Point", "coordinates": [ 124.115240899411873, 47.519271771997104 ] } },
{ "type": "Feature", "properties": { "name_chf": "寧年站", "name_ma": null, "name_chj": "宁年站", "name_alias": null, "admin": "흑룡강장군", "memo": null }, "geometry": { "type": "Point", "coordinates": [ 124.452938551972906, 47.788931562149934 ] } },
{ "type": "Feature", "properties": { "name_chf": "拉哈站", "name_ma": "laha giyamun", "name_chj": "拉哈站", "name_alias": null, "admin": "흑룡강장군", "memo": null }, "geometry": { "type": "Point", "coordinates": [ 124.606868494835979, 48.198458316858158 ] } },
{ "type": "Feature", "properties": { "name_chf": "博爾多站", "name_ma": "bordo giyamun", "name_chj": "博尔多站", "name_alias": null, "admin": "흑룡강장군", "memo": null }, "geometry": { "type": "Point", "coordinates": [ 124.862752636348972, 48.48233191072206 ] } },
{ "type": "Feature", "properties": { "name_chf": "喀穆尼站", "name_ma": "kamnika giyamun", "name_chj": "喀穆尼站", "name_alias": null, "admin": "흑룡강장군", "memo": null }, "geometry": { "type": "Point", "coordinates": [ 124.988231104955673, 48.660806863683803 ] } },
{ "type": "Feature", "properties": { "name_chf": "伊拉喀站", "name_ma": "ilaka giyamun", "name_chj": "伊拉喀站", "name_alias": null, "admin": "흑룡강장군", "memo": null }, "geometry": { "type": "Point", "coordinates": [ 125.257946638548546, 48.873710823001218 ] } },
{ "type": "Feature", "properties": { "name_chf": "黒龍江站", "name_ma": "sahaliyan ula hoton giyamun", "name_chj": "黑龙江站", "name_alias": null, "admin": "흑룡강장군", "memo": null }, "geometry": { "type": "Point", "coordinates": [ 127.481200377486417, 49.979455655994315 ] } },
{ "type": "Feature", "properties": { "name_chf": "額葉爾站", "name_ma": "eyur giyamun", "name_chj": "额叶尔站", "name_alias": null, "admin": "흑룡강장군", "memo": null }, "geometry": { "type": "Point", "coordinates": [ 126.955086801485251, 49.672313764914399 ] } },
{ "type": "Feature", "properties": { "name_chf": "庫穆楞站", "name_ma": "kumur giyamun", "name_chj": "库穆楞站", "name_alias": null, "admin": "흑룡강장군", "memo": null }, "geometry": { "type": "Point", "coordinates": [ 126.768219858252095, 49.605365129493315 ] } },
{ "type": "Feature", "properties": { "name_chf": "科洛爾站", "name_ma": "horol giyamun", "name_chj": "科洛尔站", "name_alias": null, "admin": "흑룡강장군", "memo": null }, "geometry": { "type": "Point", "coordinates": [ 125.752125980772476, 49.266990744787726 ] } },
{ "type": "Feature", "properties": { "name_chf": "喀爾喀圖站", "name_ma": null, "name_chj": "喀尔喀图站", "name_alias": null, "admin": "흑룡강장군", "memo": null }, "geometry": { "type": "Point", "coordinates": [ 126.116597726617456, 49.414123635880522 ] } },
{ "type": "Feature", "properties": { "name_chf": "特穆徳赫站", "name_ma": null, "name_chj": "特穆德赫站", "name_alias": null, "admin": "흑룡강장군", "memo": null }, "geometry": { "type": "Point", "coordinates": [ 123.863030703848892, 47.092824220489668 ] } },
{ "type": "Feature", "properties": { "name_chf": "多鼐站", "name_ma": "donai giyamun", "name_chj": "多鼐站", "name_alias": null, "admin": "흑룡강장군", "memo": null }, "geometry": { "type": "Point", "coordinates": [ 123.887525013308831, 46.4416866144621 ] } },
{ "type": "Feature", "properties": { "name_chf": "溫托琿站", "name_ma": "ontohon giyamun", "name_chj": "温托珲站", "name_alias": null, "admin": "흑룡강장군", "memo": null }, "geometry": { "type": "Point", "coordinates": [ 123.886490916486309, 46.77403100583426 ] } },
{ "type": "Feature", "properties": { "name_chf": "塔勒哈站", "name_ma": "talha giyamun", "name_chj": "塔勒哈站", "name_alias": null, "admin": "흑룡강장군", "memo": null }, "geometry": { "type": "Point", "coordinates": [ 124.140922966398222, 46.159560649214733 ] } },
{ "type": "Feature", "properties": { "name_chf": "古魯站", "name_ma": "guru giyamun", "name_chj": "古鲁站", "name_alias": null, "admin": "흑룡강장군", "memo": null }, "geometry": { "type": "Point", "coordinates": [ 124.215476444223654, 45.847865145165208 ] } },
{ "type": "Feature", "properties": { "name_chf": "烏蘭諾爾站", "name_ma": "ulan nor giyamun", "name_chj": "乌兰诺尔站", "name_alias": null, "admin": "흑룡강장군", "memo": null }, "geometry": { "type": "Point", "coordinates": [ 124.372519333811439, 45.698236745927829 ] } },
{ "type": "Feature", "properties": { "name_chf": "白都訥站", "name_ma": "bedune giyamun", "name_chj": "白都讷站", "name_alias": null, "admin": "길림장군", "memo": null }, "geometry": { "type": "Point", "coordinates": [ 124.792121397254348, 45.288886589266021 ] } },
{ "type": "Feature", "properties": { "name_chf": "法特哈站", "name_ma": "bayan oforo giyamun", "name_chj": "法特哈站", "name_alias": null, "admin": "길림장군", "memo": null }, "geometry": { "type": "Point", "coordinates": [ 126.518794050787861, 44.482024792934652 ] } },
{ "type": "Feature", "properties": { "name_chf": "瑪勒瑚哩卡倫", "name_ma": "malhvri karun", "name_chj": "玛勒瑚哩卡伦", "name_alias": null, "admin": "길림장군", "memo": null }, "geometry": { "type": "Point", "coordinates": [ 129.245378182985775, 43.957553915109308 ] } },
{ "type": "Feature", "properties": { "name_chf": "薩奇庫卡倫", "name_ma": "sacikv karun", "name_chj": "萨奇库卡伦", "name_alias": null, "admin": "길림장군", "memo": null }, "geometry": { "type": "Point", "coordinates": [ 129.50085772781614, 43.676202222890389 ] } },
{ "type": "Feature", "properties": { "name_chf": "噶哈哩卡倫", "name_ma": "gahari karun", "name_chj": "噶哈哩卡伦", "name_alias": null, "admin": "길림장군", "memo": null }, "geometry": { "type": "Point", "coordinates": [ 129.659538040325913, 43.501361820836614 ] } },
{ "type": "Feature", "properties": { "name_chf": "哈順卡倫", "name_ma": "haxun karun", "name_chj": "哈顺卡伦", "name_alias": null, "admin": "길림장군", "memo": null }, "geometry": { "type": "Point", "coordinates": [ 129.763822682028149, 43.31298693294584 ] } },
{ "type": "Feature", "properties": { "name_chf": "穆克德和卡倫", "name_ma": "haxun karun", "name_chj": "穆克德和卡伦", "name_alias": null, "admin": "길림장군", "memo": null }, "geometry": { "type": "Point", "coordinates": [ 129.923459332942201, 43.13761032390137 ] } },
{ "type": "Feature", "properties": { "name_chf": "密占卡倫", "name_ma": "mijan karun", "name_chj": "密占卡伦", "name_alias": null, "admin": "길림장군", "memo": null }, "geometry": { "type": "Point", "coordinates": [ 130.137428700603607, 42.994404446641724 ] } }
]
}
